STARLINK-37274          
1 68724U 26081AB  26115.33335647 -.00086087  00000+0 -43631-3 0  9993
2 68724  53.1597 186.9608 0001193  86.8654 219.4121 15.80905296  1307
STARLINK-37275          
1 68725U 26081AC  26115.33335647  .00168662  00000+0  84513-3 0  9996
2 68725  53.1598 186.9434 0001708  81.8570 232.9407 15.80778272  1309
STARLINK-37272          
1 68726U 26081AD  26115.33335647 -.00093811  00000+0 -47633-3 0  9994
2 68726  53.1597 186.9518 0001254  86.2106 224.3497 15.80899177  1348
STARLINK-37270          
1 68727U 26081AE  26115.33335647  .00050824  00000+0  25971-3 0  9991
2 68727  53.1598 186.9343 0000949  47.5859 271.4971 15.80857606  1342
STARLINK-37242          
1 68728U 26082A   26115.83334491  .00005889  00000+0  31515-4 0  9997
2 68728  97.2848 338.0772 0001302  90.0407 260.6807 15.80781823  2764
STARLINK-37264          
1 68729U 26082B   26115.83334491 -.00016629  00000+0 -11088-3 0  9996
2 68729  97.2850 338.0688 0001323 103.7741 226.6529 15.75180834  2829
STARLINK-37230          
1 68730U 26082C   26115.83334491 -.00022297  00000+0 -11604-3 0  9990
2 68730  97.2847 338.0816 0001322 104.2958 254.9647 15.80801185  2825
STARLINK-37202          
1 68731U 26082D   26115.83334491 -.00823257  00000+0 -59224-2 0  9995
2 68731  97.2849 338.0794 0001414 106.7493 247.3722 15.75760164  2764
STARLINK-37167          
1 68732U 26082E   26115.83334491  .00020599  00000+0  10818-3 0  9999
2 68732  97.2857 338.0848 0001414 106.5710 261.2415 15.80784152  2824
STARLINK-37278          
1 68733U 26082F   26115.83334491  .00019252  00000+0  10118-3 0  9997
2 68733  97.2862 338.0871 0001244  86.1021 285.9821 15.80783683  2761
STARLINK-37349          
1 68734U 26082G   26115.83334491  .00068934  00000+0  35881-3 0  9993
2 68734  97.2855 338.0886 0001272  87.0414 289.3323 15.80753291  2764
STARLINK-37339          
1 68735U 26082H   26115.83334491 -.00029217  00000+0 -15236-3 0  9999
2 68735  97.2853 338.0902 0001277  85.7493 294.8759 15.80807183  2763
STARLINK-37327          
1 68736U 26082J   26115.83334491 -.00002590  00000+0 -16517-4 0  9999
2 68736  97.2850 338.0843 0001343  94.2596 272.1712 15.75169881  2766
STARLINK-37348          
1 68737U 26082K   26115.83334491  .00003971  00000+0  27510-4 0  9997
2 68737  97.2852 338.0893 0001058 115.3650 261.0686 15.75162814  2714
STARLINK-37331          
1 68738U 26082L   26115.83334491  .00061243  00000+0  31912-3 0  9994
2 68738  97.2852 338.0953 0001155  98.9632 294.5019 15.80754860  2711
STARLINK-37338          
1 68739U 26082M   26115.83334491 -.00258345  00000+0 -17787-2 0  9991
2 68739  97.2853 338.0935 0000901  81.4047 304.9788 15.75260185  2768
