[{"OBJECT_NAME":"STARLINK-37274","OBJECT_ID":"2026-081AB","EPOCH":"2026-04-25T08:00:01.999008","MEAN_MOTION":15.80905296,"ECCENTRICITY":0.0001193,"INCLINATION":53.1597,"RA_OF_ASC_NODE":186.9608,"ARG_OF_PERICENTER":86.8654,"MEAN_ANOMALY":219.4121,"EPHEMERIS_TYPE":0,"CLASSIFICATION_TYPE":"U","NORAD_CAT_ID":68724,"ELEMENT_SET_NO":999,"REV_AT_EPOCH":130,"BSTAR":-0.00043631,"MEAN_MOTION_DOT":-0.00086087,"MEAN_MOTION_DDOT":0},{"OBJECT_NAME":"STARLINK-37275","OBJECT_ID":"2026-081AC","EPOCH":"2026-04-25T08:00:01.999008","MEAN_MOTION":15.80778272,"ECCENTRICITY":0.0001708,"INCLINATION":53.1598,"RA_OF_ASC_NODE":186.9434,"ARG_OF_PERICENTER":81.857,"MEAN_ANOMALY":232.9407,"EPHEMERIS_TYPE":0,"CLASSIFICATION_TYPE":"U","NORAD_CAT_ID":68725,"ELEMENT_SET_NO":999,"REV_AT_EPOCH":130,"BSTAR":0.00084513,"MEAN_MOTION_DOT":0.00168662,"MEAN_MOTION_DDOT":0},{"OBJECT_NAME":"STARLINK-37272","OBJECT_ID":"2026-081AD","EPOCH":"2026-04-25T08:00:01.999008","MEAN_MOTION":15.80899177,"ECCENTRICITY":0.0001254,"INCLINATION":53.1597,"RA_OF_ASC_NODE":186.9518,"ARG_OF_PERICENTER":86.2106,"MEAN_ANOMALY":224.3497,"EPHEMERIS_TYPE":0,"CLASSIFICATION_TYPE":"U","NORAD_CAT_ID":68726,"ELEMENT_SET_NO":999,"REV_AT_EPOCH":134,"BSTAR":-0.00047633,"MEAN_MOTION_DOT":-0.00093811,"MEAN_MOTION_DDOT":0},{"OBJECT_NAME":"STARLINK-37270","OBJECT_ID":"2026-081AE","EPOCH":"2026-04-25T08:00:01.999008","MEAN_MOTION":15.80857606,"ECCENTRICITY":9.49e-5,"INCLINATION":53.1598,"RA_OF_ASC_NODE":186.9343,"ARG_OF_PERICENTER":47.5859,"MEAN_ANOMALY":271.4971,"EPHEMERIS_TYPE":0,"CLASSIFICATION_TYPE":"U","NORAD_CAT_ID":68727,"ELEMENT_SET_NO":999,"REV_AT_EPOCH":134,"BSTAR":0.00025971,"MEAN_MOTION_DOT":0.00050824,"MEAN_MOTION_DDOT":0},{"OBJECT_NAME":"STARLINK-37242","OBJECT_ID":"2026-082A","EPOCH":"2026-04-25T20:00:01.000224","MEAN_MOTION":15.80781823,"ECCENTRICITY":0.0001302,"INCLINATION":97.2848,"RA_OF_ASC_NODE":338.0772,"ARG_OF_PERICENTER":90.0407,"MEAN_ANOMALY":260.6807,"EPHEMERIS_TYPE":0,"CLASSIFICATION_TYPE":"U","NORAD_CAT_ID":68728,"ELEMENT_SET_NO":999,"REV_AT_EPOCH":276,"BSTAR":3.1515e-5,"MEAN_MOTION_DOT":5.889e-5,"MEAN_MOTION_DDOT":0},{"OBJECT_NAME":"STARLINK-37264","OBJECT_ID":"2026-082B","EPOCH":"2026-04-25T20:00:01.000224","MEAN_MOTION":15.75180834,"ECCENTRICITY":0.0001323,"INCLINATION":97.285,"RA_OF_ASC_NODE":338.0688,"ARG_OF_PERICENTER":103.7741,"MEAN_ANOMALY":226.6529,"EPHEMERIS_TYPE":0,"CLASSIFICATION_TYPE":"U","NORAD_CAT_ID":68729,"ELEMENT_SET_NO":999,"REV_AT_EPOCH":282,"BSTAR":-0.00011088,"MEAN_MOTION_DOT":-0.00016629,"MEAN_MOTION_DDOT":0},{"OBJECT_NAME":"STARLINK-37230","OBJECT_ID":"2026-082C","EPOCH":"2026-04-25T20:00:01.000224","MEAN_MOTION":15.80801185,"ECCENTRICITY":0.0001322,"INCLINATION":97.2847,"RA_OF_ASC_NODE":338.0816,"ARG_OF_PERICENTER":104.2958,"MEAN_ANOMALY":254.9647,"EPHEMERIS_TYPE":0,"CLASSIFICATION_TYPE":"U","NORAD_CAT_ID":68730,"ELEMENT_SET_NO":999,"REV_AT_EPOCH":282,"BSTAR":-0.00011604,"MEAN_MOTION_DOT":-0.00022297,"MEAN_MOTION_DDOT":0},{"OBJECT_NAME":"STARLINK-37202","OBJECT_ID":"2026-082D","EPOCH":"2026-04-25T20:00:01.000224","MEAN_MOTION":15.75760164,"ECCENTRICITY":0.0001414,"INCLINATION":97.2849,"RA_OF_ASC_NODE":338.0794,"ARG_OF_PERICENTER":106.7493,"MEAN_ANOMALY":247.3722,"EPHEMERIS_TYPE":0,"CLASSIFICATION_TYPE":"U","NORAD_CAT_ID":68731,"ELEMENT_SET_NO":999,"REV_AT_EPOCH":276,"BSTAR":-0.0059224,"MEAN_MOTION_DOT":-0.00823257,"MEAN_MOTION_DDOT":0},{"OBJECT_NAME":"STARLINK-37167","OBJECT_ID":"2026-082E","EPOCH":"2026-04-25T20:00:01.000224","MEAN_MOTION":15.80784152,"ECCENTRICITY":0.0001414,"INCLINATION":97.2857,"RA_OF_ASC_NODE":338.0848,"ARG_OF_PERICENTER":106.571,"MEAN_ANOMALY":261.2415,"EPHEMERIS_TYPE":0,"CLASSIFICATION_TYPE":"U","NORAD_CAT_ID":68732,"ELEMENT_SET_NO":999,"REV_AT_EPOCH":282,"BSTAR":0.00010818,"MEAN_MOTION_DOT":0.00020599,"MEAN_MOTION_DDOT":0},{"OBJECT_NAME":"STARLINK-37278","OBJECT_ID":"2026-082F","EPOCH":"2026-04-25T20:00:01.000224","MEAN_MOTION":15.80783683,"ECCENTRICITY":0.0001244,"INCLINATION":97.2862,"RA_OF_ASC_NODE":338.0871,"ARG_OF_PERICENTER":86.1021,"MEAN_ANOMALY":285.9821,"EPHEMERIS_TYPE":0,"CLASSIFICATION_TYPE":"U","NORAD_CAT_ID":68733,"ELEMENT_SET_NO":999,"REV_AT_EPOCH":276,"BSTAR":0.00010118,"MEAN_MOTION_DOT":0.00019252,"MEAN_MOTION_DDOT":0},{"OBJECT_NAME":"STARLINK-37349","OBJECT_ID":"2026-082G","EPOCH":"2026-04-25T20:00:01.000224","MEAN_MOTION":15.80753291,"ECCENTRICITY":0.0001272,"INCLINATION":97.2855,"RA_OF_ASC_NODE":338.0886,"ARG_OF_PERICENTER":87.0414,"MEAN_ANOMALY":289.3323,"EPHEMERIS_TYPE":0,"CLASSIFICATION_TYPE":"U","NORAD_CAT_ID":68734,"ELEMENT_SET_NO":999,"REV_AT_EPOCH":276,"BSTAR":0.00035881,"MEAN_MOTION_DOT":0.00068934,"MEAN_MOTION_DDOT":0},{"OBJECT_NAME":"STARLINK-37339","OBJECT_ID":"2026-082H","EPOCH":"2026-04-25T20:00:01.000224","MEAN_MOTION":15.80807183,"ECCENTRICITY":0.0001277,"INCLINATION":97.2853,"RA_OF_ASC_NODE":338.0902,"ARG_OF_PERICENTER":85.7493,"MEAN_ANOMALY":294.8759,"EPHEMERIS_TYPE":0,"CLASSIFICATION_TYPE":"U","NORAD_CAT_ID":68735,"ELEMENT_SET_NO":999,"REV_AT_EPOCH":276,"BSTAR":-0.00015236,"MEAN_MOTION_DOT":-0.00029217,"MEAN_MOTION_DDOT":0},{"OBJECT_NAME":"STARLINK-37327","OBJECT_ID":"2026-082J","EPOCH":"2026-04-25T20:00:01.000224","MEAN_MOTION":15.75169881,"ECCENTRICITY":0.0001343,"INCLINATION":97.285,"RA_OF_ASC_NODE":338.0843,"ARG_OF_PERICENTER":94.2596,"MEAN_ANOMALY":272.1712,"EPHEMERIS_TYPE":0,"CLASSIFICATION_TYPE":"U","NORAD_CAT_ID":68736,"ELEMENT_SET_NO":999,"REV_AT_EPOCH":276,"BSTAR":-1.6517e-5,"MEAN_MOTION_DOT":-2.59e-5,"MEAN_MOTION_DDOT":0},{"OBJECT_NAME":"STARLINK-37348","OBJECT_ID":"2026-082K","EPOCH":"2026-04-25T20:00:01.000224","MEAN_MOTION":15.75162814,"ECCENTRICITY":0.0001058,"INCLINATION":97.2852,"RA_OF_ASC_NODE":338.0893,"ARG_OF_PERICENTER":115.365,"MEAN_ANOMALY":261.0686,"EPHEMERIS_TYPE":0,"CLASSIFICATION_TYPE":"U","NORAD_CAT_ID":68737,"ELEMENT_SET_NO":999,"REV_AT_EPOCH":271,"BSTAR":2.751e-5,"MEAN_MOTION_DOT":3.971e-5,"MEAN_MOTION_DDOT":0},{"OBJECT_NAME":"STARLINK-37331","OBJECT_ID":"2026-082L","EPOCH":"2026-04-25T20:00:01.000224","MEAN_MOTION":15.8075486,"ECCENTRICITY":0.0001155,"INCLINATION":97.2852,"RA_OF_ASC_NODE":338.0953,"ARG_OF_PERICENTER":98.9632,"MEAN_ANOMALY":294.5019,"EPHEMERIS_TYPE":0,"CLASSIFICATION_TYPE":"U","NORAD_CAT_ID":68738,"ELEMENT_SET_NO":999,"REV_AT_EPOCH":271,"BSTAR":0.00031912,"MEAN_MOTION_DOT":0.00061243,"MEAN_MOTION_DDOT":0},{"OBJECT_NAME":"STARLINK-37338","OBJECT_ID":"2026-082M","EPOCH":"2026-04-25T20:00:01.000224","MEAN_MOTION":15.75260185,"ECCENTRICITY":9.01e-5,"INCLINATION":97.2853,"RA_OF_ASC_NODE":338.0935,"ARG_OF_PERICENTER":81.4047,"MEAN_ANOMALY":304.9788,"EPHEMERIS_TYPE":0,"CLASSIFICATION_TYPE":"U","NORAD_CAT_ID":68739,"ELEMENT_SET_NO":999,"REV_AT_EPOCH":276,"BSTAR":-0.0017787,"MEAN_MOTION_DOT":-0.00258345,"MEAN_MOTION_DDOT":0}]
